CTC1_L_00094001-01
1 44223U 23533HO  26037.47802083  .00000000  00000+0  00000-0 0  9990
2 44223  50.0000   0.0000 0000000   0.0000   0.0000 14.42576027    11
CTC1_L_00094001-02
1 44224U 23192WI  26037.47802083  .00000000  00000+0  00000-0 0  9992
2 44224  50.0000   0.0000 0000000   0.0000  90.0000 14.42576027    11
CTC1_L_00094001-03
1 44225U 23060CJ  26037.47802083  .00000000  00000+0  00000-0 0  9997
2 44225  50.0000   0.0000 0000000   0.0000 180.0000 14.42576027    12
CTC1_L_00094001-04
1 44226U 23385LJ  26037.47802083  .00000000  00000+0  00000-0 0  9998
2 44226  50.0000   0.0000 0000000   0.0000 270.0000 14.42576027    13
CTC1_L_00094002-01
1 44227U 25473VM  26037.47802083  .00000000  00000+0  00000-0 0  9999
2 44227  50.0000  12.0000 0000000   0.0000  12.0000 14.42576027    11
CTC1_L_00094002-02
1 44228U 23115ZE  26037.47802083  .00000000  00000+0  00000-0 0  9991
2 44228  50.0000  12.0000 0000000   0.0000 102.0000 14.42576027    12
CTC1_L_00094002-03
1 44229U 22346BH  26037.47802083  .00000000  00000+0  00000-0 0  9997
2 44229  50.0000  12.0000 0000000   0.0000 192.0000 14.42576027    12
CTC1_L_00094002-04
1 44230U 23132CU  26037.47802083  .00000000  00000+0  00000-0 0  9993
2 44230  50.0000  12.0000 0000000   0.0000 282.0000 14.42576027    14
CTC1_L_00094003-01
1 44231U 23400XE  26037.47802083  .00000000  00000+0  00000-0 0  9992
2 44231  50.0000  24.0000 0000000   0.0000  24.0000 14.42576027    12
CTC1_L_00094003-02
1 44232U 23741E   26037.47802083  .00000000  00000+0  00000-0 0  9991
2 44232  50.0000  24.0000 0000000   0.0000 114.0000 14.42576027    13
CTC1_L_00094003-03
1 44233U 26124I   26037.47802083  .00000000  00000+0  00000-0 0  9990
2 44233  50.0000  24.0000 0000000   0.0000 204.0000 14.42576027    14
CTC1_L_00094003-04
1 44234U 23280SO  26037.47802083  .00000000  00000+0  00000-0 0  9991
2 44234  50.0000  24.0000 0000000   0.0000 294.0000 14.42576027    14
CTC1_L_00094004-01
1 44235U 25441ZF  26037.47802083  .00000000  00000+0  00000-0 0  9993
2 44235  50.0000  36.0000 0000000   0.0000  36.0000 14.42576027    12
CTC1_L_00094004-02
1 44236U 24276JP  26037.47802083  .00000000  00000+0  00000-0 0  9999
2 44236  50.0000  36.0000 0000000   0.0000 126.0000 14.42576027    13
CTC1_L_00094004-03
1 44237U 22885HE  26037.47802083  .00000000  00000+0  00000-0 0  9994
2 44237  50.0000  36.0000 0000000   0.0000 216.0000 14.42576027    14
CTC1_L_00094004-04
1 44238U 24449LD  26037.47802083  .00000000  00000+0  00000-0 0  9993
2 44238  50.0000  36.0000 0000000   0.0000 306.0000 14.42576027    15
CTC1_L_00094005-01
1 44239U 23560CF  26037.47802083  .00000000  00000+0  00000-0 0  9997
2 44239  50.0000  48.0000 0000000   0.0000  48.0000 14.42576027    12
CTC1_L_00094005-02
1 44240U 23009US  26037.47802083  .00000000  00000+0  00000-0 0  9997
2 44240  50.0000  48.0000 0000000   0.0000 138.0000 14.42576027    14
CTC1_L_00094005-03
1 44241U 25648ZG  26037.47802083  .00000000  00000+0  00000-0 0  9999
2 44241  50.0000  48.0000 0000000   0.0000 228.0000 14.42576027    15
CTC1_L_00094005-04
1 44242U 26859LY  26037.47802083  .00000000  00000+0  00000-0 0  9995
2 44242  50.0000  48.0000 0000000   0.0000 318.0000 14.42576027    16
CTC1_L_00094006-01
1 44243U 26068NN  26037.47802083  .00000000  00000+0  00000-0 0  9998
2 44243  50.0000  60.0000 0000000   0.0000  60.0000 14.42576027    15
CTC1_L_00094006-02
1 44244U 23584GG  26037.47802083  .00000000  00000+0  00000-0 0  9999
2 44244  50.0000  60.0000 0000000   0.0000 150.0000 14.42576027    16
CTC1_L_00094006-03
1 44245U 23455VL  26037.47802083  .00000000  00000+0  00000-0 0  9997
2 44245  50.0000  60.0000 0000000   0.0000 240.0000 14.42576027    17
CTC1_L_00094006-04
1 44246U 23612YW  26037.47802083  .00000000  00000+0  00000-0 0  9993
2 44246  50.0000  60.0000 0000000   0.0000 330.0000 14.42576027    18
CTC1_L_00094007-01
1 44247U 22265OJ  26037.47802083  .00000000  00000+0  00000-0 0  9997
2 44247  50.0000  72.0000 0000000   0.0000  72.0000 14.42576027    15
CTC1_L_00094007-02
1 44248U 24784TN  26037.47802083  .00000000  00000+0  00000-0 0  9996
2 44248  50.0000  72.0000 0000000   0.0000 162.0000 14.42576027    16
CTC1_L_00094007-03
1 44249U 24408WF  26037.47802083  .00000000  00000+0  00000-0 0  9990
2 44249  50.0000  72.0000 0000000   0.0000 252.0000 14.42576027    17
CTC1_L_00094007-04
1 44250U 22663IJ  26037.47802083  .00000000  00000+0  00000-0 0  9993
2 44250  50.0000  72.0000 0000000   0.0000 342.0000 14.42576027    19
CTC1_L_00094008-01
1 44251U 22370DI  26037.47802083  .00000000  00000+0  00000-0 0  9999
2 44251  50.0000  84.0000 0000000   0.0000  84.0000 14.42576027    16
CTC1_L_00094008-02
1 44252U 22893DC  26037.47802083  .00000000  00000+0  00000-0 0  9990
2 44252  50.0000  84.0000 0000000   0.0000 174.0000 14.42576027    17
CTC1_L_00094008-03
1 44253U 25971FV  26037.47802083  .00000000  00000+0  00000-0 0  9991
2 44253  50.0000  84.0000 0000000   0.0000 264.0000 14.42576027    18
CTC1_L_00094008-04
1 44254U 22652TO  26037.47802083  .00000000  00000+0  00000-0 0  9995
2 44254  50.0000  84.0000 0000000   0.0000 354.0000 14.42576027    19
CTC1_L_00094009-01
1 44255U 22291R   26037.47802083  .00000000  00000+0  00000-0 0  9995
2 44255  50.0000  96.0000 0000000   0.0000  96.0000 14.42576027    16
CTC1_L_00094009-02
1 44256U 26141MK  26037.47802083  .00000000  00000+0  00000-0 0  9994
2 44256  50.0000  96.0000 0000000   0.0000 186.0000 14.42576027    17
CTC1_L_00094009-03
1 44257U 22054VK  26037.47802083  .00000000  00000+0  00000-0 0  9994
2 44257  50.0000  96.0000 0000000   0.0000 276.0000 14.42576027    18
CTC1_L_00094009-04
1 44258U 23683JQ  26037.47802083  .00000000  00000+0  00000-0 0  9994
2 44258  50.0000  96.0000 0000000   0.0000   6.0000 14.42576027    10
CTC1_L_00094010-01
1 44259U 24968LP  26037.47802083  .00000000  00000+0  00000-0 0  9992
2 44259  50.0000 108.0000 0000000   0.0000 108.0000 14.42576027    18
CTC1_L_00094010-02
1 44260U 23818KE  26037.47802083  .00000000  00000+0  00000-0 0  9997
2 44260  50.0000 108.0000 0000000   0.0000 198.0000 14.42576027    19
CTC1_L_00094010-03
1 44261U 26220OF  26037.47802083  .00000000  00000+0  00000-0 0  9998
2 44261  50.0000 108.0000 0000000   0.0000 288.0000 14.42576027    10
CTC1_L_00094010-04
1 44262U 25736CV  26037.47802083  .00000000  00000+0  00000-0 0  9990
2 44262  50.0000 108.0000 0000000   0.0000  18.0000 14.42576027    12
CTC1_L_00094011-01
1 44263U 25846CX  26037.47802083  .00000000  00000+0  00000-0 0  9993
2 44263  50.0000 120.0000 0000000   0.0000 120.0000 14.42576027    11
CTC1_L_00094011-02
1 44264U 26630RT  26037.47802083  .00000000  00000+0  00000-0 0  9996
2 44264  50.0000 120.0000 0000000   0.0000 210.0000 14.42576027    12
CTC1_L_00094011-03
1 44265U 25058DN  26037.47802083  .00000000  00000+0  00000-0 0  9990
2 44265  50.0000 120.0000 0000000   0.0000 300.0000 14.42576027    13
CTC1_L_00094011-04
1 44266U 24404ED  26037.47802083  .00000000  00000+0  00000-0 0  9995
2 44266  50.0000 120.0000 0000000   0.0000  30.0000 14.42576027    14
CTC1_L_00094012-01
1 44267U 26846DV  26037.47802083  .00000000  00000+0  00000-0 0  9998
2 44267  50.0000 132.0000 0000000   0.0000 132.0000 14.42576027    11
CTC1_L_00094012-02
1 44268U 22386WG  26037.47802083  .00000000  00000+0  00000-0 0  9994
2 44268  50.0000 132.0000 0000000   0.0000 222.0000 14.42576027    12
CTC1_L_00094012-03
1 44269U 23141GV  26037.47802083  .00000000  00000+0  00000-0 0  9995
2 44269  50.0000 132.0000 0000000   0.0000 312.0000 14.42576027    13
CTC1_L_00094012-04
1 44270U 23903FK  26037.47802083  .00000000  00000+0  00000-0 0  9993
2 44270  50.0000 132.0000 0000000   0.0000  42.0000 14.42576027    15
CTC1_L_00094013-01
1 44271U 26377B   26037.47802083  .00000000  00000+0  00000-0 0  9992
2 44271  50.0000 144.0000 0000000   0.0000 144.0000 14.42576027    12
CTC1_L_00094013-02
1 44272U 25411NJ  26037.47802083  .00000000  00000+0  00000-0 0  9991
2 44272  50.0000 144.0000 0000000   0.0000 234.0000 14.42576027    13
CTC1_L_00094013-03
1 44273U 22039QC  26037.47802083  .00000000  00000+0  00000-0 0  9995
2 44273  50.0000 144.0000 0000000   0.0000 324.0000 14.42576027    14
CTC1_L_00094013-04
1 44274U 24535MF  26037.47802083  .00000000  00000+0  00000-0 0  9999
2 44274  50.0000 144.0000 0000000   0.0000  54.0000 14.42576027    15
CTC1_L_00094014-01
1 44275U 23430XB  26037.47802083  .00000000  00000+0  00000-0 0  9993
2 44275  50.0000 156.0000 0000000   0.0000 156.0000 14.42576027    12
CTC1_L_00094014-02
1 44276U 22863YA  26037.47802083  .00000000  00000+0  00000-0 0  9993
2 44276  50.0000 156.0000 0000000   0.0000 246.0000 14.42576027    13
CTC1_L_00094014-03
1 44277U 23361SN  26037.47802083  .00000000  00000+0  00000-0 0  9998
2 44277  50.0000 156.0000 0000000   0.0000 336.0000 14.42576027    14
CTC1_L_00094014-04
1 44278U 22464IT  26037.47802083  .00000000  00000+0  00000-0 0  9992
2 44278  50.0000 156.0000 0000000   0.0000  66.0000 14.42576027    15
CTC1_L_00094015-01
1 44279U 23233DO  26037.47802083  .00000000  00000+0  00000-0 0  9998
2 44279  50.0000 168.0000 0000000   0.0000 168.0000 14.42576027    12
CTC1_L_00094015-02
1 44280U 22252NC  26037.47802083  .00000000  00000+0  00000-0 0  9990
2 44280  50.0000 168.0000 0000000   0.0000 258.0000 14.42576027    14
CTC1_L_00094015-03
1 44281U 22668L   26037.47802083  .00000000  00000+0  00000-0 0  9992
2 44281  50.0000 168.0000 0000000   0.0000 348.0000 14.42576027    15
CTC1_L_00094015-04
1 44282U 24549HV  26037.47802083  .00000000  00000+0  00000-0 0  9993
2 44282  50.0000 168.0000 0000000   0.0000  78.0000 14.42576027    16
CTC1_L_00094016-01
1 44283U 26627VK  26037.47802083  .00000000  00000+0  00000-0 0  9993
2 44283  50.0000 180.0000 0000000   0.0000 180.0000 14.42576027    15
CTC1_L_00094016-02
1 44284U 22961VO  26037.47802083  .00000000  00000+0  00000-0 0  9991
2 44284  50.0000 180.0000 0000000   0.0000 270.0000 14.42576027    16
